CCSDS_OMM_VERS = 2.0
CREATION_DATE  = 
ORIGINATOR     = 

OBJECT_NAME    = STARLINK-36421
OBJECT_ID      = 2026-008V
CENTER_NAME    = EARTH
REF_FRAME      = TEME
TIME_SYSTEM    = UTC
MEAN_ELEMENT_THEORY = SGP/SGP4

EPOCH          = 2026-01-25T12:00:01.999296
MEAN_MOTION    = 15.91783284
ECCENTRICITY   = .0001306
INCLINATION    = 43.0014
RA_OF_ASC_NODE = 95.9083
ARG_OF_PERICENTER = 284.7894
MEAN_ANOMALY   = 294.2171

EPHEMERIS_TYPE = 0
CLASSIFICATION_TYPE = U
NORAD_CAT_ID   = 67464
ELEMENT_SET_NO = 999
REV_AT_EPOCH   = 285
BSTAR          = -.42873E-2
MEAN_MOTION_DOT = -.1454088E-1
MEAN_MOTION_DDOT = .59812E-3

CCSDS_OMM_VERS = 2.0
CREATION_DATE  = 
ORIGINATOR     = 

OBJECT_NAME    = STARLINK-36437
OBJECT_ID      = 2026-008W
CENTER_NAME    = EARTH
REF_FRAME      = TEME
TIME_SYSTEM    = UTC
MEAN_ELEMENT_THEORY = SGP/SGP4

EPOCH          = 2026-01-25T12:00:01.999296
MEAN_MOTION    = 15.91818123
ECCENTRICITY   = .0001302
INCLINATION    = 43.0013
RA_OF_ASC_NODE = 95.9010
ARG_OF_PERICENTER = 280.9777
MEAN_ANOMALY   = 300.7762

EPHEMERIS_TYPE = 0
CLASSIFICATION_TYPE = U
NORAD_CAT_ID   = 67465
ELEMENT_SET_NO = 999
REV_AT_EPOCH   = 285
BSTAR          = -.42885E-2
MEAN_MOTION_DOT = -.1457093E-1
MEAN_MOTION_DDOT = .60059E-3

CCSDS_OMM_VERS = 2.0
CREATION_DATE  = 
ORIGINATOR     = 

OBJECT_NAME    = STARLINK-36520
OBJECT_ID      = 2026-008X
CENTER_NAME    = EARTH
REF_FRAME      = TEME
TIME_SYSTEM    = UTC
MEAN_ELEMENT_THEORY = SGP/SGP4

EPOCH          = 2026-01-25T12:00:01.999296
MEAN_MOTION    = 15.91858974
ECCENTRICITY   = .0001283
INCLINATION    = 43.0012
RA_OF_ASC_NODE = 95.8931
ARG_OF_PERICENTER = 278.2622
MEAN_ANOMALY   = 306.5795

EPHEMERIS_TYPE = 0
CLASSIFICATION_TYPE = U
NORAD_CAT_ID   = 67466
ELEMENT_SET_NO = 999
REV_AT_EPOCH   = 285
BSTAR          = -.43303E-2
MEAN_MOTION_DOT = -.1474208E-1
MEAN_MOTION_DDOT = .61384E-3

CCSDS_OMM_VERS = 2.0
CREATION_DATE  = 
ORIGINATOR     = 

OBJECT_NAME    = STARLINK-36425
OBJECT_ID      = 2026-008Y
CENTER_NAME    = EARTH
REF_FRAME      = TEME
TIME_SYSTEM    = UTC
MEAN_ELEMENT_THEORY = SGP/SGP4

EPOCH          = 2026-01-25T12:00:01.999296
MEAN_MOTION    = 15.91905310
ECCENTRICITY   = .0001187
INCLINATION    = 43.0012
RA_OF_ASC_NODE = 95.8861
ARG_OF_PERICENTER = 283.1640
MEAN_ANOMALY   = 304.4594

EPHEMERIS_TYPE = 0
CLASSIFICATION_TYPE = U
NORAD_CAT_ID   = 67467
ELEMENT_SET_NO = 999
REV_AT_EPOCH   = 285
BSTAR          = -.44058E-2
MEAN_MOTION_DOT = -.1503149E-1
MEAN_MOTION_DDOT = .63642E-3

CCSDS_OMM_VERS = 2.0
CREATION_DATE  = 
ORIGINATOR     = 

OBJECT_NAME    = STARLINK-36414
OBJECT_ID      = 2026-008Z
CENTER_NAME    = EARTH
REF_FRAME      = TEME
TIME_SYSTEM    = UTC
MEAN_ELEMENT_THEORY = SGP/SGP4

EPOCH          = 2026-01-25T12:00:01.999296
MEAN_MOTION    = 15.93755922
ECCENTRICITY   = .0001553
INCLINATION    = 43.0015
RA_OF_ASC_NODE = 95.7812
ARG_OF_PERICENTER = 278.3413
MEAN_ANOMALY   = 350.6895

EPHEMERIS_TYPE = 0
CLASSIFICATION_TYPE = U
NORAD_CAT_ID   = 67468
ELEMENT_SET_NO = 999
REV_AT_EPOCH   = 285
BSTAR          = -.35655E-2
MEAN_MOTION_DOT = -.1342581E-1
MEAN_MOTION_DDOT = .52678E-3

CCSDS_OMM_VERS = 2.0
CREATION_DATE  = 
ORIGINATOR     = 

OBJECT_NAME    = STARLINK-36441
OBJECT_ID      = 2026-008AA
CENTER_NAME    = EARTH
REF_FRAME      = TEME
TIME_SYSTEM    = UTC
MEAN_ELEMENT_THEORY = SGP/SGP4

EPOCH          = 2026-01-25T12:00:01.999296
MEAN_MOTION    = 15.93935857
ECCENTRICITY   = .0001403
INCLINATION    = 43.0014
RA_OF_ASC_NODE = 95.7352
ARG_OF_PERICENTER = 283.0203
MEAN_ANOMALY   = 3.9836

EPHEMERIS_TYPE = 0
CLASSIFICATION_TYPE = U
NORAD_CAT_ID   = 67469
ELEMENT_SET_NO = 999
REV_AT_EPOCH   = 285
BSTAR          = -.37891E-2
MEAN_MOTION_DOT = -.1439295E-1
MEAN_MOTION_DDOT = .59947E-3

CCSDS_OMM_VERS = 2.0
CREATION_DATE  = 
ORIGINATOR     = 

OBJECT_NAME    = STARLINK-36454
OBJECT_ID      = 2026-008AB
CENTER_NAME    = EARTH
REF_FRAME      = TEME
TIME_SYSTEM    = UTC
MEAN_ELEMENT_THEORY = SGP/SGP4

EPOCH          = 2026-01-25T12:00:01.999296
MEAN_MOTION    = 15.94012527
ECCENTRICITY   = .0001386
INCLINATION    = 43.0013
RA_OF_ASC_NODE = 95.7160
ARG_OF_PERICENTER = 280.3144
MEAN_ANOMALY   = 14.2283

EPHEMERIS_TYPE = 0
CLASSIFICATION_TYPE = U
NORAD_CAT_ID   = 67470
ELEMENT_SET_NO = 999
REV_AT_EPOCH   = 285
BSTAR          = -.3889E-2
MEAN_MOTION_DOT = -.1482717E-1
MEAN_MOTION_DDOT = .63356E-3

CCSDS_OMM_VERS = 2.0
CREATION_DATE  = 
ORIGINATOR     = 

OBJECT_NAME    = STARLINK-36334
OBJECT_ID      = 2026-008AC
CENTER_NAME    = EARTH
REF_FRAME      = TEME
TIME_SYSTEM    = UTC
MEAN_ELEMENT_THEORY = SGP/SGP4

EPOCH          = 2026-01-25T12:00:01.999296
MEAN_MOTION    = 15.93846233
ECCENTRICITY   = .0001415
INCLINATION    = 43.0014
RA_OF_ASC_NODE = 95.7592
ARG_OF_PERICENTER = 279.2951
MEAN_ANOMALY   = 358.2127

EPHEMERIS_TYPE = 0
CLASSIFICATION_TYPE = U
NORAD_CAT_ID   = 67471
ELEMENT_SET_NO = 999
REV_AT_EPOCH   = 285
BSTAR          = -.36816E-2
MEAN_MOTION_DOT = -.1392351E-1
MEAN_MOTION_DDOT = .56361E-3

CCSDS_OMM_VERS = 2.0
CREATION_DATE  = 
ORIGINATOR     = 

OBJECT_NAME    = STARLINK-36269
OBJECT_ID      = 2026-008AD
CENTER_NAME    = EARTH
REF_FRAME      = TEME
TIME_SYSTEM    = UTC
MEAN_ELEMENT_THEORY = SGP/SGP4

EPOCH          = 2026-01-25T12:00:01.999296
MEAN_MOTION    = 15.94117399
ECCENTRICITY   = .0001372
INCLINATION    = 43.0011
RA_OF_ASC_NODE = 95.6895
ARG_OF_PERICENTER = 280.1847
MEAN_ANOMALY   = 24.6434

EPHEMERIS_TYPE = 0
CLASSIFICATION_TYPE = U
NORAD_CAT_ID   = 67472
ELEMENT_SET_NO = 999
REV_AT_EPOCH   = 287
BSTAR          = -.40844E-2
MEAN_MOTION_DOT = -.1564926E-1
MEAN_MOTION_DDOT = .70034E-3

CCSDS_OMM_VERS = 2.0
CREATION_DATE  = 
ORIGINATOR     = 

OBJECT_NAME    = STARLINK-36408
OBJECT_ID      = 2026-008AE
CENTER_NAME    = EARTH
REF_FRAME      = TEME
TIME_SYSTEM    = UTC
MEAN_ELEMENT_THEORY = SGP/SGP4

EPOCH          = 2026-01-25T12:00:01.999296
MEAN_MOTION    = 15.94224623
ECCENTRICITY   = .0001286
INCLINATION    = 43.0013
RA_OF_ASC_NODE = 95.6510
ARG_OF_PERICENTER = 282.5669
MEAN_ANOMALY   = 37.6178

EPHEMERIS_TYPE = 0
CLASSIFICATION_TYPE = U
NORAD_CAT_ID   = 67473
ELEMENT_SET_NO = 999
REV_AT_EPOCH   = 287
BSTAR          = -.42973E-2
MEAN_MOTION_DOT = -.1654746E-1
MEAN_MOTION_DDOT = .77701E-3

CCSDS_OMM_VERS = 2.0
CREATION_DATE  = 
ORIGINATOR     = 

OBJECT_NAME    = ALSAT-3A
OBJECT_ID      = 2026-009A
CENTER_NAME    = EARTH
REF_FRAME      = TEME
TIME_SYSTEM    = UTC
MEAN_ELEMENT_THEORY = SGP/SGP4

EPOCH          = 2026-01-25T11:09:37.981152
MEAN_MOTION    = 15.02989922
ECCENTRICITY   = .0099237
INCLINATION    = 97.1800
RA_OF_ASC_NODE = 99.1792
ARG_OF_PERICENTER = 186.9908
MEAN_ANOMALY   = 172.9941

EPHEMERIS_TYPE = 0
CLASSIFICATION_TYPE = U
NORAD_CAT_ID   = 67474
ELEMENT_SET_NO = 999
REV_AT_EPOCH   = 155
BSTAR          = .42894E-3
MEAN_MOTION_DOT = .6366E-4
MEAN_MOTION_DDOT = 0

CCSDS_OMM_VERS = 2.0
CREATION_DATE  = 
ORIGINATOR     = 

OBJECT_NAME    = CZ-2C R/B
OBJECT_ID      = 2026-009B
CENTER_NAME    = EARTH
REF_FRAME      = TEME
TIME_SYSTEM    = UTC
MEAN_ELEMENT_THEORY = SGP/SGP4

EPOCH          = 2026-01-25T11:00:36.248832
MEAN_MOTION    = 15.23186350
ECCENTRICITY   = .0011343
INCLINATION    = 97.4703
RA_OF_ASC_NODE = 100.1873
ARG_OF_PERICENTER = 220.9648
MEAN_ANOMALY   = 139.0738

EPHEMERIS_TYPE = 0
CLASSIFICATION_TYPE = U
NORAD_CAT_ID   = 67475
ELEMENT_SET_NO = 999
REV_AT_EPOCH   = 157
BSTAR          = .45463E-3
MEAN_MOTION_DOT = .10702E-3
MEAN_MOTION_DDOT = 0

