STARLINK-36421          
1 67464U 26008V   26025.50002314 -.01454088  59812-3 -42873-2 0  9999
2 67464  43.0014  95.9083 0001306 284.7894 294.2171 15.91783284  2856
STARLINK-36437          
1 67465U 26008W   26025.50002314 -.01457093  60059-3 -42885-2 0  9997
2 67465  43.0013  95.9010 0001302 280.9777 300.7762 15.91818123  2850
STARLINK-36520          
1 67466U 26008X   26025.50002314 -.01474208  61384-3 -43303-2 0  9993
2 67466  43.0012  95.8931 0001283 278.2622 306.5795 15.91858974  2856
STARLINK-36425          
1 67467U 26008Y   26025.50002314 -.01503149  63642-3 -44058-2 0  9998
2 67467  43.0012  95.8861 0001187 283.1640 304.4594 15.91905310  2858
STARLINK-36414          
1 67468U 26008Z   26025.50002314 -.01342581  52678-3 -35655-2 0  9990
2 67468  43.0015  95.7812 0001553 278.3413 350.6895 15.93755922  2859
STARLINK-36441          
1 67469U 26008AA  26025.50002314 -.01439295  59947-3 -37891-2 0  9990
2 67469  43.0014  95.7352 0001403 283.0203   3.9836 15.93935857  2852
STARLINK-36454          
1 67470U 26008AB  26025.50002314 -.01482717  63356-3 -38890-2 0  9998
2 67470  43.0013  95.7160 0001386 280.3144  14.2283 15.94012527  2856
STARLINK-36334          
1 67471U 26008AC  26025.50002314 -.01392351  56361-3 -36816-2 0  9997
2 67471  43.0014  95.7592 0001415 279.2951 358.2127 15.93846233  2859
STARLINK-36269          
1 67472U 26008AD  26025.50002314 -.01564926  70034-3 -40844-2 0  9996
2 67472  43.0011  95.6895 0001372 280.1847  24.6434 15.94117399  2871
STARLINK-36408          
1 67473U 26008AE  26025.50002314 -.01654746  77701-3 -42973-2 0  9990
2 67473  43.0013  95.6510 0001286 282.5669  37.6178 15.94224623  2878
ALSAT-3A                
1 67474U 26009A   26025.46502293  .00006366  00000+0  42894-3 0  9991
2 67474  97.1800  99.1792 0099237 186.9908 172.9941 15.02989922  1554
CZ-2C R/B               
1 67475U 26009B   26025.45875288  .00010702  00000+0  45463-3 0  9992
2 67475  97.4703 100.1873 0011343 220.9648 139.0738 15.23186350  1572
